NAVSTAR 67 (USA 239)
1 38833U 12053A   26178.28751091  .00000019  00000+0  00000+0 0  9991
2 38833  53.5876 143.1856 0180902  65.9164 295.9270  2.00567719 99649
